{"fetched_at":"2026-07-15T17:46:49.740Z","source":"https://celestrak.org/NORAD/elements/gp.php?GROUP=qianfan&FORMAT=JSON","constellation":"qianfan","records":[{"OBJECT_NAME":"QIANFAN-193","OBJECT_ID":"2026-125L","EPOCH":"2026-07-15T02:04:14.669760","CLASSIFICATION_TYPE":"U","MEAN_MOTION":13.95840006,"ECCENTRICITY":0.0023459,"INCLINATION":88.9945,"RA_OF_ASC_NODE":277.2863,"ARG_OF_PERICENTER":74.875,"MEAN_ANOMALY":285.5019,"EPHEMERIS_TYPE":0,"NORAD_CAT_ID":69411,"ELEMENT_SET_NO":999,"REV_AT_EPOCH":565,"BSTAR":-1.5469,"MEAN_MOTION_DOT":-0.01972129,"MEAN_MOTION_DDOT":0},{"OBJECT_NAME":"QIANFAN-194","OBJECT_ID":"2026-125M","EPOCH":"2026-07-15T01:59:12.096096","CLASSIFICATION_TYPE":"U","MEAN_MOTION":13.95143265,"ECCENTRICITY":0.001714,"INCLINATION":88.9938,"RA_OF_ASC_NODE":277.2845,"ARG_OF_PERICENTER":65.217,"MEAN_ANOMALY":295.0787,"EPHEMERIS_TYPE":0,"NORAD_CAT_ID":69412,"ELEMENT_SET_NO":999,"REV_AT_EPOCH":564,"BSTAR":-1.6859,"MEAN_MOTION_DOT":-0.021105,"MEAN_MOTION_DDOT":0},{"OBJECT_NAME":"QIANFAN-195","OBJECT_ID":"2026-125N","EPOCH":"2026-07-15T03:02:07.311264","CLASSIFICATION_TYPE":"U","MEAN_MOTION":13.99213213,"ECCENTRICITY":0.001921,"INCLINATION":88.9939,"RA_OF_ASC_NODE":277.274,"ARG_OF_PERICENTER":82.8805,"MEAN_ANOMALY":277.4556,"EPHEMERIS_TYPE":0,"NORAD_CAT_ID":69413,"ELEMENT_SET_NO":999,"REV_AT_EPOCH":566,"BSTAR":-1.5501,"MEAN_MOTION_DOT":-0.02086671,"MEAN_MOTION_DDOT":0},{"OBJECT_NAME":"QIANFAN-196","OBJECT_ID":"2026-125P","EPOCH":"2026-07-15T03:02:21.404832","CLASSIFICATION_TYPE":"U","MEAN_MOTION":13.98560362,"ECCENTRICITY":0.0021258,"INCLINATION":88.9944,"RA_OF_ASC_NODE":277.2746,"ARG_OF_PERICENTER":77.5054,"MEAN_ANOMALY":282.8501,"EPHEMERIS_TYPE":0,"NORAD_CAT_ID":69414,"ELEMENT_SET_NO":999,"REV_AT_EPOCH":566,"BSTAR":-1.5314,"MEAN_MOTION_DOT":-0.02041884,"MEAN_MOTION_DDOT":0},{"OBJECT_NAME":"QIANFAN-197","OBJECT_ID":"2026-125Q","EPOCH":"2026-07-15T02:54:17.397216","CLASSIFICATION_TYPE":"U","MEAN_MOTION":13.9739416,"ECCENTRICITY":0.0018448,"INCLINATION":88.9943,"RA_OF_ASC_NODE":277.2745,"ARG_OF_PERICENTER":66.6079,"MEAN_ANOMALY":293.7036,"EPHEMERIS_TYPE":0,"NORAD_CAT_ID":69415,"ELEMENT_SET_NO":999,"REV_AT_EPOCH":565,"BSTAR":-1.6522,"MEAN_MOTION_DOT":-0.02148979,"MEAN_MOTION_DDOT":0},{"OBJECT_NAME":"QIANFAN-198","OBJECT_ID":"2026-125R","EPOCH":"2026-07-15T04:52:27.607584","CLASSIFICATION_TYPE":"U","MEAN_MOTION":14.01022178,"ECCENTRICITY":0.0018402,"INCLINATION":88.995,"RA_OF_ASC_NODE":277.2667,"ARG_OF_PERICENTER":79.9039,"MEAN_ANOMALY":280.4216,"EPHEMERIS_TYPE":0,"NORAD_CAT_ID":69416,"ELEMENT_SET_NO":999,"REV_AT_EPOCH":567,"BSTAR":0.00010109,"MEAN_MOTION_DOT":0.00000165,"MEAN_MOTION_DDOT":0},{"OBJECT_NAME":"QIANFAN-199","OBJECT_ID":"2026-125S","EPOCH":"2026-07-15T02:00:00.739296","CLASSIFICATION_TYPE":"U","MEAN_MOTION":14.02430399,"ECCENTRICITY":0.0019662,"INCLINATION":88.9941,"RA_OF_ASC_NODE":277.267,"ARG_OF_PERICENTER":100.3168,"MEAN_ANOMALY":260.023,"EPHEMERIS_TYPE":0,"NORAD_CAT_ID":69417,"ELEMENT_SET_NO":999,"REV_AT_EPOCH":566,"BSTAR":-1.4794,"MEAN_MOTION_DOT":-0.02106998,"MEAN_MOTION_DDOT":0},{"OBJECT_NAME":"QIANFAN-200","OBJECT_ID":"2026-125T","EPOCH":"2026-07-15T04:23:11.535360","CLASSIFICATION_TYPE":"U","MEAN_MOTION":13.99061864,"ECCENTRICITY":0.0018918,"INCLINATION":88.9947,"RA_OF_ASC_NODE":277.282,"ARG_OF_PERICENTER":79.3551,"MEAN_ANOMALY":280.9757,"EPHEMERIS_TYPE":0,"NORAD_CAT_ID":69418,"ELEMENT_SET_NO":999,"REV_AT_EPOCH":566,"BSTAR":0.0000012238,"MEAN_MOTION_DOT":1.6e-7,"MEAN_MOTION_DDOT":0},{"OBJECT_NAME":"QIANFAN-201","OBJECT_ID":"2026-153A","EPOCH":"2026-07-15T02:44:07.835712","CLASSIFICATION_TYPE":"U","MEAN_MOTION":14.53448476,"ECCENTRICITY":0.0087059,"INCLINATION":89.0162,"RA_OF_ASC_NODE":358.9868,"ARG_OF_PERICENTER":87.2328,"MEAN_ANOMALY":273.8841,"EPHEMERIS_TYPE":0,"NORAD_CAT_ID":69800,"ELEMENT_SET_NO":999,"REV_AT_EPOCH":156,"BSTAR":0.000018252,"MEAN_MOTION_DOT":9.9e-7,"MEAN_MOTION_DDOT":0},{"OBJECT_NAME":"QIANFAN-202","OBJECT_ID":"2026-153B","EPOCH":"2026-07-14T21:38:47.923584","CLASSIFICATION_TYPE":"U","MEAN_MOTION":14.22084805,"ECCENTRICITY":0.0006377,"INCLINATION":88.9965,"RA_OF_ASC_NODE":359.0753,"ARG_OF_PERICENTER":171.8728,"MEAN_ANOMALY":188.2568,"EPHEMERIS_TYPE":0,"NORAD_CAT_ID":69801,"ELEMENT_SET_NO":999,"REV_AT_EPOCH":150,"BSTAR":0.000017118,"MEAN_MOTION_DOT":5.2e-7,"MEAN_MOTION_DDOT":0},{"OBJECT_NAME":"QIANFAN-203","OBJECT_ID":"2026-153C","EPOCH":"2026-07-14T23:18:20.030688","CLASSIFICATION_TYPE":"U","MEAN_MOTION":14.22901054,"ECCENTRICITY":0.0010302,"INCLINATION":88.9955,"RA_OF_ASC_NODE":359.0604,"ARG_OF_PERICENTER":197.5852,"MEAN_ANOMALY":162.4984,"EPHEMERIS_TYPE":0,"NORAD_CAT_ID":69802,"ELEMENT_SET_NO":999,"REV_AT_EPOCH":151,"BSTAR":0.000016795,"MEAN_MOTION_DOT":5.2e-7,"MEAN_MOTION_DDOT":0},{"OBJECT_NAME":"QIANFAN-204","OBJECT_ID":"2026-153D","EPOCH":"2026-07-15T04:22:08.122944","CLASSIFICATION_TYPE":"U","MEAN_MOTION":14.22390494,"ECCENTRICITY":0.0007217,"INCLINATION":88.9922,"RA_OF_ASC_NODE":359.0518,"ARG_OF_PERICENTER":183.6239,"MEAN_ANOMALY":176.4902,"EPHEMERIS_TYPE":0,"NORAD_CAT_ID":69803,"ELEMENT_SET_NO":999,"REV_AT_EPOCH":154,"BSTAR":0.000047887,"MEAN_MOTION_DOT":0.00000121,"MEAN_MOTION_DDOT":0},{"OBJECT_NAME":"QIANFAN-205","OBJECT_ID":"2026-153E","EPOCH":"2026-07-15T04:23:49.542720","CLASSIFICATION_TYPE":"U","MEAN_MOTION":14.22264186,"ECCENTRICITY":0.0007429,"INCLINATION":88.9921,"RA_OF_ASC_NODE":359.0518,"ARG_OF_PERICENTER":182.0005,"MEAN_ANOMALY":178.1158,"EPHEMERIS_TYPE":0,"NORAD_CAT_ID":69804,"ELEMENT_SET_NO":999,"REV_AT_EPOCH":154,"BSTAR":0.000047173,"MEAN_MOTION_DOT":0.00000119,"MEAN_MOTION_DDOT":0},{"OBJECT_NAME":"QIANFAN-206","OBJECT_ID":"2026-153F","EPOCH":"2026-07-15T04:14:59.725824","CLASSIFICATION_TYPE":"U","MEAN_MOTION":14.24034465,"ECCENTRICITY":0.0007916,"INCLINATION":88.9922,"RA_OF_ASC_NODE":359.051,"ARG_OF_PERICENTER":183.0333,"MEAN_ANOMALY":177.0812,"EPHEMERIS_TYPE":0,"NORAD_CAT_ID":69805,"ELEMENT_SET_NO":999,"REV_AT_EPOCH":154,"BSTAR":0.00001591,"MEAN_MOTION_DOT":5.1e-7,"MEAN_MOTION_DDOT":0},{"OBJECT_NAME":"QIANFAN-207","OBJECT_ID":"2026-153G","EPOCH":"2026-07-15T04:13:13.084032","CLASSIFICATION_TYPE":"U","MEAN_MOTION":14.24250039,"ECCENTRICITY":0.000733,"INCLINATION":88.9922,"RA_OF_ASC_NODE":359.0507,"ARG_OF_PERICENTER":182.9573,"MEAN_ANOMALY":177.1578,"EPHEMERIS_TYPE":0,"NORAD_CAT_ID":69806,"ELEMENT_SET_NO":999,"REV_AT_EPOCH":154,"BSTAR":0.00001586,"MEAN_MOTION_DOT":5.1e-7,"MEAN_MOTION_DDOT":0},{"OBJECT_NAME":"QIANFAN-208","OBJECT_ID":"2026-153H","EPOCH":"2026-07-15T04:12:36.853920","CLASSIFICATION_TYPE":"U","MEAN_MOTION":14.25461837,"ECCENTRICITY":0.0008139,"INCLINATION":88.9921,"RA_OF_ASC_NODE":359.0506,"ARG_OF_PERICENTER":183.7543,"MEAN_ANOMALY":176.359,"EPHEMERIS_TYPE":0,"NORAD_CAT_ID":69807,"ELEMENT_SET_NO":999,"REV_AT_EPOCH":154,"BSTAR":0.00006764,"MEAN_MOTION_DOT":0.00000174,"MEAN_MOTION_DDOT":0}]}
