QIANFAN-193             
1 69411U 26125L   26196.08628090 -.01972129  00000+0 -15469+1 0  9991
2 69411  88.9945 277.2863 0023459  74.8750 285.5019 13.95840006  5657
QIANFAN-194             
1 69412U 26125M   26196.08277889 -.02110500  00000+0 -16859+1 0  9990
2 69412  88.9938 277.2845 0017140  65.2170 295.0787 13.95143265  5640
QIANFAN-195             
1 69413U 26125N   26196.12647351 -.02086671  00000+0 -15501+1 0  9995
2 69413  88.9939 277.2740 0019210  82.8805 277.4556 13.99213213  5661
QIANFAN-196             
1 69414U 26125P   26196.12663663 -.02041884  00000+0 -15314+1 0  9999
2 69414  88.9944 277.2746 0021258  77.5054 282.8501 13.98560362  5665
QIANFAN-197             
1 69415U 26125Q   26196.12103469 -.02148979  00000+0 -16522+1 0  9998
2 69415  88.9943 277.2745 0018448  66.6079 293.7036 13.97394160  5650
QIANFAN-198             
1 69416U 26125R   26196.20309731  .00000165  00000+0  10109-3 0  9996
2 69416  88.9950 277.2667 0018402  79.9039 280.4216 14.01022178  5673
QIANFAN-199             
1 69417U 26125S   26196.08334189 -.02106998  00000+0 -14794+1 0  9994
2 69417  88.9941 277.2670 0019662 100.3168 260.0230 14.02430399  5667
QIANFAN-200             
1 69418U 26125T   26196.18277240  .00000016  00000+0  12238-5 0  9996
2 69418  88.9947 277.2820 0018918  79.3551 280.9757 13.99061864  5662
QIANFAN-201             
1 69800U 26153A   26196.11397958  .00000099  00000+0  18252-4 0  9996
2 69800  89.0162 358.9868 0087059  87.2328 273.8841 14.53448476  1568
QIANFAN-202             
1 69801U 26153B   26195.90194356  .00000052  00000+0  17118-4 0  9999
2 69801  88.9965 359.0753 0006377 171.8728 188.2568 14.22084805  1508
QIANFAN-203             
1 69802U 26153C   26195.97106517  .00000052  00000+0  16795-4 0  9999
2 69802  88.9955 359.0604 0010302 197.5852 162.4984 14.22901054  1510
QIANFAN-204             
1 69803U 26153D   26196.18203846  .00000121  00000+0  47887-4 0  9990
2 69803  88.9922 359.0518 0007217 183.6239 176.4902 14.22390494  1543
QIANFAN-205             
1 69804U 26153E   26196.18321230  .00000119  00000+0  47173-4 0  9994
2 69804  88.9921 359.0518 0007429 182.0005 178.1158 14.22264186  1542
QIANFAN-206             
1 69805U 26153F   26196.17708016  .00000051  00000+0  15910-4 0  9994
2 69805  88.9922 359.0510 0007916 183.0333 177.0812 14.24034465  1544
QIANFAN-207             
1 69806U 26153G   26196.17584588  .00000051  00000+0  15860-4 0  9995
2 69806  88.9922 359.0507 0007330 182.9573 177.1578 14.24250039  1542
QIANFAN-208             
1 69807U 26153H   26196.17542655  .00000174  00000+0  67640-4 0  9994
2 69807  88.9921 359.0506 0008139 183.7543 176.3590 14.25461837  1541
